CCSDS_OMM_VERS = 2.0
CREATION_DATE  = 
ORIGINATOR     = 

OBJECT_NAME    = CORAL
OBJECT_ID      = 1998-067YA
CENTER_NAME    = EARTH
REF_FRAME      = TEME
TIME_SYSTEM    = UTC
MEAN_ELEMENT_THEORY = SGP/SGP4

EPOCH          = 2026-03-28T01:41:09.503232
MEAN_MOTION    = 15.57412936
ECCENTRICITY   = .00126356
INCLINATION    = 51.6309
RA_OF_ASC_NODE = 339.6483
ARG_OF_PERICENTER = 241.6761
MEAN_ANOMALY   = 118.2957

EPHEMERIS_TYPE = 0
CLASSIFICATION_TYPE = U
NORAD_CAT_ID   = 67684
ELEMENT_SET_NO = 999
REV_AT_EPOCH   = 765
BSTAR          = .11748725E-2
MEAN_MOTION_DOT = .88583E-3
MEAN_MOTION_DDOT = 0

CCSDS_OMM_VERS = 2.0
CREATION_DATE  = 
ORIGINATOR     = 

OBJECT_NAME    = GXIBA-1
OBJECT_ID      = 1998-067YB
CENTER_NAME    = EARTH
REF_FRAME      = TEME
TIME_SYSTEM    = UTC
MEAN_ELEMENT_THEORY = SGP/SGP4

EPOCH          = 2026-03-28T03:02:08.246976
MEAN_MOTION    = 15.53874924
ECCENTRICITY   = .00118591
INCLINATION    = 51.6320
RA_OF_ASC_NODE = 340.0239
ARG_OF_PERICENTER = 249.3772
MEAN_ANOMALY   = 110.5947

EPHEMERIS_TYPE = 0
CLASSIFICATION_TYPE = U
NORAD_CAT_ID   = 67685
ELEMENT_SET_NO = 999
REV_AT_EPOCH   = 765
BSTAR          = .71758857E-3
MEAN_MOTION_DOT = .46994E-3
MEAN_MOTION_DDOT = 0

CCSDS_OMM_VERS = 2.0
CREATION_DATE  = 
ORIGINATOR     = 

OBJECT_NAME    = UITMSAT-2
OBJECT_ID      = 1998-067YC
CENTER_NAME    = EARTH
REF_FRAME      = TEME
TIME_SYSTEM    = UTC
MEAN_ELEMENT_THEORY = SGP/SGP4

EPOCH          = 2026-03-28T02:41:42.799488
MEAN_MOTION    = 15.54802779
ECCENTRICITY   = .00090505
INCLINATION    = 51.6320
RA_OF_ASC_NODE = 339.9313
ARG_OF_PERICENTER = 220.6186
MEAN_ANOMALY   = 139.4131

EPHEMERIS_TYPE = 0
CLASSIFICATION_TYPE = U
NORAD_CAT_ID   = 67686
ELEMENT_SET_NO = 999
REV_AT_EPOCH   = 765
BSTAR          = .8622031E-3
MEAN_MOTION_DOT = .58539E-3
MEAN_MOTION_DDOT = 0

CCSDS_OMM_VERS = 2.0
CREATION_DATE  = 
ORIGINATOR     = 

OBJECT_NAME    = HMU-SAT2
OBJECT_ID      = 1998-067YD
CENTER_NAME    = EARTH
REF_FRAME      = TEME
TIME_SYSTEM    = UTC
MEAN_ELEMENT_THEORY = SGP/SGP4

EPOCH          = 2026-03-28T03:09:04.060800
MEAN_MOTION    = 15.53622616
ECCENTRICITY   = .00085467
INCLINATION    = 51.6326
RA_OF_ASC_NODE = 340.0583
ARG_OF_PERICENTER = 223.8304
MEAN_ANOMALY   = 136.2009

EPHEMERIS_TYPE = 0
CLASSIFICATION_TYPE = U
NORAD_CAT_ID   = 67687
ELEMENT_SET_NO = 999
REV_AT_EPOCH   = 757
BSTAR          = .70312211E-3
MEAN_MOTION_DOT = .45541E-3
MEAN_MOTION_DDOT = 0

CCSDS_OMM_VERS = 2.0
CREATION_DATE  = 
ORIGINATOR     = 

OBJECT_NAME    = LEOPARD
OBJECT_ID      = 1998-067YE
CENTER_NAME    = EARTH
REF_FRAME      = TEME
TIME_SYSTEM    = UTC
MEAN_ELEMENT_THEORY = SGP/SGP4

EPOCH          = 2026-03-27T23:45:52.132608
MEAN_MOTION    = 15.54365889
ECCENTRICITY   = .0008714
INCLINATION    = 51.6330
RA_OF_ASC_NODE = 340.6163
ARG_OF_PERICENTER = 220.8121
MEAN_ANOMALY   = 139.2218

EPHEMERIS_TYPE = 0
CLASSIFICATION_TYPE = U
NORAD_CAT_ID   = 67688
ELEMENT_SET_NO = 999
REV_AT_EPOCH   = 755
BSTAR          = .79128E-3
MEAN_MOTION_DOT = .52781E-3
MEAN_MOTION_DDOT = 0

CCSDS_OMM_VERS = 2.0
CREATION_DATE  = 
ORIGINATOR     = 

OBJECT_NAME    = CREW DRAGON 12
OBJECT_ID      = 2026-031A
CENTER_NAME    = EARTH
REF_FRAME      = TEME
TIME_SYSTEM    = UTC
MEAN_ELEMENT_THEORY = SGP/SGP4

EPOCH          = 2026-03-28T03:57:10.438560
MEAN_MOTION    = 15.48601072
ECCENTRICITY   = .00062264
INCLINATION    = 51.6345
RA_OF_ASC_NODE = 341.0267
ARG_OF_PERICENTER = 240.9881
MEAN_ANOMALY   = 119.0483

EPHEMERIS_TYPE = 0
CLASSIFICATION_TYPE = U
NORAD_CAT_ID   = 67796
ELEMENT_SET_NO = 999
REV_AT_EPOCH   = 55913
BSTAR          = .24002995E-3
MEAN_MOTION_DOT = .12619E-3
MEAN_MOTION_DDOT = 0

CCSDS_OMM_VERS = 2.0
CREATION_DATE  = 
ORIGINATOR     = 

OBJECT_NAME    = PROGRESS-MS 33
OBJECT_ID      = 2026-058A
CENTER_NAME    = EARTH
REF_FRAME      = TEME
TIME_SYSTEM    = UTC
MEAN_ELEMENT_THEORY = SGP/SGP4

EPOCH          = 2026-03-28T03:57:10.438560
MEAN_MOTION    = 15.48601072
ECCENTRICITY   = .00062264
INCLINATION    = 51.6345
RA_OF_ASC_NODE = 341.0267
ARG_OF_PERICENTER = 240.9881
MEAN_ANOMALY   = 119.0483

EPHEMERIS_TYPE = 0
CLASSIFICATION_TYPE = U
NORAD_CAT_ID   = 68319
ELEMENT_SET_NO = 999
REV_AT_EPOCH   = 33
BSTAR          = .24002995E-3
MEAN_MOTION_DOT = .12619E-3
MEAN_MOTION_DDOT = 0

